[{"OBJECT_NAME":"ONEWEB-0182","OBJECT_ID":"2021-031U","EPOCH":"2026-03-09T16:42:32.721984","MEAN_MOTION":13.14502258,"ECCENTRICITY":0.00015336,"INCLINATION":87.8984,"RA_OF_ASC_NODE":309.5585,"ARG_OF_PERICENTER":72.9127,"MEAN_ANOMALY":287.217,"EPHEMERIS_TYPE":0,"CLASSIFICATION_TYPE":"U","NORAD_CAT_ID":48228,"ELEMENT_SET_NO":999,"REV_AT_EPOCH":23536,"BSTAR":-0.00056599097,"MEAN_MOTION_DOT":-1.97e-6,"MEAN_MOTION_DDOT":0},{"OBJECT_NAME":"DELTA 1 DEB","OBJECT_ID":"1975-052JT","EPOCH":"2026-03-07T15:44:46.829184","MEAN_MOTION":13.23565736,"ECCENTRICITY":0.0160377,"INCLINATION":99.3289,"RA_OF_ASC_NODE":136.6319,"ARG_OF_PERICENTER":188.9673,"MEAN_ANOMALY":326.4841,"EPHEMERIS_TYPE":0,"CLASSIFICATION_TYPE":"U","NORAD_CAT_ID":21933,"ELEMENT_SET_NO":999,"REV_AT_EPOCH":65880,"BSTAR":0.00058488,"MEAN_MOTION_DOT":2.28e-6,"MEAN_MOTION_DDOT":0}]
